[{"OBJECT_NAME":"STARLINK-5325","OBJECT_ID":"2023-010Z","EPOCH":"2026-03-09T23:31:08.435136","MEAN_MOTION":14.98337252,"ECCENTRICITY":0.00032307,"INCLINATION":70.0015,"RA_OF_ASC_NODE":23.6853,"ARG_OF_PERICENTER":268.8951,"MEAN_ANOMALY":91.1838,"EPHEMERIS_TYPE":0,"CLASSIFICATION_TYPE":"U","NORAD_CAT_ID":55292,"ELEMENT_SET_NO":999,"REV_AT_EPOCH":17331,"BSTAR":5.7518149e-5,"MEAN_MOTION_DOT":5.93e-6,"MEAN_MOTION_DDOT":0},{"OBJECT_NAME":"KORSAT-7","OBJECT_ID":"2023-185B","EPOCH":"2026-03-09T23:44:55.136256","MEAN_MOTION":15.00898391,"ECCENTRICITY":0.00224341,"INCLINATION":97.6243,"RA_OF_ASC_NODE":135.089,"ARG_OF_PERICENTER":307.6562,"MEAN_ANOMALY":52.2627,"EPHEMERIS_TYPE":0,"CLASSIFICATION_TYPE":"U","NORAD_CAT_ID":58463,"ELEMENT_SET_NO":999,"REV_AT_EPOCH":12440,"BSTAR":0.00023536002,"MEAN_MOTION_DOT":2.951e-5,"MEAN_MOTION_DDOT":0}]
